ORBCOMM FM33            
1 25983U 99065D   25261.46920820  .00000740  00000+0  27675-3 0  9993
2 25983  45.0281 275.4068 0008162 189.6277 170.4417 14.40176722349518
ORBCOMM FM36            
1 25984U 99065E   25261.34691687  .00001011  00000+0  37543-3 0  9994
2 25984  45.0410   9.3430 0001385  77.6851 282.4153 14.38335272347832
ORBCOMM FM35            
1 25985U 99065F   25261.32447349  .00000887  00000+0  34218-3 0  9993
2 25985  45.0412  15.2278 0004681 161.9145 198.1871 14.37282446348188
ORBCOMM FM34            
1 25986U 99065G   25261.35913015  .00000772  00000+0  30394-3 0  9999
2 25986  45.0408  15.5192 0003488 117.2218 242.8987 14.37281939348306
ORBCOMM FM38            
1 33060U 08031A   25261.28764230  .00001792  00000+0  25230-3 0  9995
2 33060  48.4398 231.4585 0004459  76.3658 283.7754 14.81661163928557
ORBCOMM FM41            
1 33061U 08031B   25261.41601968  .00001707  00000+0  24409-3 0  9992
2 33061  48.4434 238.9504 0003769  57.8090 108.7768 14.81234116928059
ORBCOMM FM29            
1 33062U 08031C   25261.39101039  .00001780  00000+0  25269-3 0  9990
2 33062  48.4384 246.7619 0005425  59.4363  93.9153 14.81349926927968
ORBCOMM FM39            
1 33063U 08031D   25261.41790713  .00001327  00000+0  20208-3 0  9992
2 33063  48.4399 271.9420 0006556  30.0600 330.0691 14.79861211927606
